NUSAT-15 (KATHERINE)    
1 46830U 20079D   23075.20603823  .00073056  00000+0  11694-2 0  9993
2 46830  97.1663 147.8455 0002154  57.5709   2.9455 15.52875036132052
NUSAT-14 (HEDY)         
1 46831U 20079E   23075.13185606  .00077618  00000+0  11810-2 0  9998
2 46831  97.1616 147.8477 0004656  36.8303  25.6788 15.54254141132077
NUSAT-10 (CAROLINE)     
1 46832U 20079F   23075.26512674  .00063968  00000+0  10840-2 0  9997
2 46832  97.1647 147.1260 0004908  61.9980   8.7174 15.51304336132031
NUSAT-13 (EMMY)         
1 46833U 20079G   23075.18053348  .00062234  00000+0  10736-2 0  9996
2 46833  97.1638 146.9095 0005331  61.3511  23.1189 15.50805997132013
NUSAT-17 (MARY)         
1 46835U 20079J   23075.23298453  .00064834  00000+0  11120-2 0  9998
2 46835  97.1635 146.6705 0005325  69.5279  14.3066 15.50960674132000
NUSAT-18 (VERA)         
1 46836U 20079K   23075.16536926  .00069290  00000+0  11413-2 0  9997
2 46836  97.1647 147.3018 0005644  76.4346   7.6183 15.52077143132035
BY70-3                  
1 46839U 20079N   23075.28046928  .00414609  00000+0  21080-2 0  9990
2 46839  97.1532 152.2249 0005025 245.3641 196.9884 15.80347052132401
NUSAT-16 (LISE)         
1 46840U 20079P   23075.16523212  .00072848  00000+0  11737-2 0  9998
2 46840  97.1704 147.6264 0003116  79.4453   5.1776 15.52692337132033
TIANQI-11               
1 46904U 20080A   23075.15948122  .00065178  00000+0  14411-2 0  9991
2 46904  97.4867 209.1403 0008403 148.8330 336.6410 15.43567327131200
RISAT-2BR2              
1 46905U 20081A   23074.93247853  .00003945  00000+0  33422-3 0  9999
2 46905  36.9036  67.8607 0003057 278.9411  81.0927 14.97986706128829
KSM1-C                  
1 46906U 20081B   23074.91909028  .00009169  00000+0  68085-3 0  9994
2 46906  36.8953  52.8088 0002607  98.5341 261.5696 15.02575403128904
KSM1-D                  
1 46907U 20081C   23075.24717852  .00009133  00000+0  67822-3 0  9993
2 46907  36.8998  51.0355 0005166 129.1617 230.9584 15.02568656129024
LEMUR-2-OZARAK          
1 46908U 20081D   23075.27546856  .00026111  00000+0  16886-2 0  9999
2 46908  36.9075  44.9486 0004443 166.3711 193.7153 15.07419475129109
LEMUR-2-JINDRA          
1 46909U 20081E   23075.26675273  .00031188  00000+0  19419-2 0  9990
2 46909  36.9065  42.1165 0005090 185.0651 175.0044 15.08760947129143
LEMUR-2-WALLACE         
1 46910U 20081F   23075.26415775  .00029679  00000+0  18776-2 0  9998
2 46910  36.9060  43.0050 0005251 164.8073 195.2815 15.08191306129120
LEMUR-2-JEREMIAH        
1 46911U 20081G   23075.27587751  .00024260  00000+0  15566-2 0  9999
2 46911  36.9092  43.1500 0005570 183.1518 176.9191 15.07723857129134
KSM1-A                  
1 46912U 20081H   23075.18586083  .00008173  00000+0  60721-3 0  9996
2 46912  36.8999  50.3047 0004728 212.7828 221.9771 15.02598974129032
R2                      
1 46913U 20081J   23075.20512437  .00009007  00000+0  66378-3 0  9993
2 46913  36.9041  49.0794 0010034 145.4020 214.7376 15.02833652128360
KSM1-B                  
1 46914U 20081K   23075.13572388  .00008610  00000+0  63979-3 0  9990
2 46914  36.9038  50.9833 0007567 147.7831 310.7995 15.02557608128294
TIANTONG-1 2            
1 46916U 20082A   23074.61722598 -.00000360  00000+0  00000+0 0  9992
2 46916   3.4727 293.8571 0001946 104.0814 122.1705  1.00271125  8728
CORVUS BC5              
1 46931U 20085C   23074.90487850  .00043135  00000+0  12421-2 0  9992
2 46931  97.4725 218.5925 0012127 186.4262 173.6828 15.35557297128929
SPACEBEENZ-3            
1 46938U 20085K   23074.94940782  .01680586  16830-2  35129-2 0  9990
2 46938  97.4385 225.7263 0011198 279.5249  80.4763 15.99307101129425
SPACEBEENZ-4            
1 46939U 20085L   23074.92972446  .00764507  00000+0  33096-2 0  9996
2 46939  97.4455 224.8521 0009601 262.1035  97.9144 15.82946498129367
BRO-2                   
1 46940U 20085M   23075.20887910  .00026401  00000+0  90670-3 0  9997
2 46940  97.4796 216.7374 0010580 205.9676 276.9017 15.30051733128782
SPACEBEENZ-5            
1 46941U 20085N   23074.90169028  .00524272  00000+0  32202-2 0  9992
2 46941  97.4490 224.3127 0008857 251.3348 108.6956 15.75761466129324
SPACEBEENZ-6            
1 46942U 20085P   23075.15411578  .00451604  00000+0  33855-2 0  9994
2 46942  97.4553 224.2264 0008415 238.7083 121.3356 15.71272465129330
BRO-3                   
1 46943U 20085Q   23075.15434891  .00054735  00000+0  14807-2 0  9998
2 46943  97.4554 216.6805 0010625 204.7890 328.2825 15.37463914128895
DRAGRACER 2 (AUGURY)    
1 46955U 20085AC  23074.89772994  .00011901  00000+0  48331-3 0  9998
2 46955  97.4769 213.5229 0012000 227.1534 132.8696 15.24670657128586
SPACEBEENZ-2            
1 46957U 20085AE  23071.94414602  .07115369  24596-5  30773-2 0  9994
2 46957  97.4410 223.2670 0009477 289.9576  70.0693 16.22557168128967
SENTINEL-6              
1 46984U 20086A   23074.44248473 -.00000061  00000+0  00000+0 0  9995
2 46984  66.0427  86.1714 0007898 266.3022  93.7090 12.80929954108071
CHANG'E-5               
1 47097U 20087A   23069.49546640 -.00041413  00000+0  00000+0 0  9994
2 47097  28.0777   4.9556 5332648 234.3857 331.8997  0.02066185   538
STARLINK-1777           
1 47122U 20088A   23075.19892681 -.00011126  00000+0 -72987-3 0  9993
2 47122  53.0540 152.5336 0001118  87.9646 272.1471 15.06366005127928
STARLINK-1785           
1 47124U 20088C   23074.92013113  .00024112  00000+0  16293-2 0  9994
2 47124  53.0512 158.7936 0001318  75.5334 284.5801 15.06462860127810
STARLINK-1812           
1 47126U 20088E   23074.49487845  .00043882  00000+0  29397-2 0  9999
2 47126  53.0524 155.6929 0001398  73.1829 286.9313 15.06486478127527
STARLINK-1837           
1 47128U 20088G   23075.18231604 -.00004852  00000+0 -30740-3 0  9999
2 47128  53.0534 132.6076 0001202  96.6118 263.5008 15.06361416128205
STARLINK-1838           
1 47129U 20088H   23075.21090184 -.00009267  00000+0 -60465-3 0  9992
2 47129  53.0519 142.4770 0001082  80.9050 279.2061 15.06363574128071
STARLINK-1839           
1 47130U 20088J   23075.25001157  .00170261  00000+0  12599-2 0  9995
2 47130  53.0477 108.7816 0007150  33.6946  59.6965 15.71886194128548
STARLINK-1843           
1 47133U 20088M   23075.20350647  .00003482  00000+0  25243-3 0  9995
2 47133  53.0527 142.5111 0002082 109.9486 250.1728 15.06420098128074
STARLINK-1844           
1 47134U 20088N   23075.24312667 -.00016473  00000+0 -10911-2 0  9991
2 47134  53.0524 152.3339 0001416 110.9366 249.1774 15.06348543127939
STARLINK-1845           
1 47135U 20088P   23075.19608208  .00000163  00000+0  29840-4 0  9995
2 47135  53.0515 142.5429 0002178  77.8447 282.2785 15.06384942128077
STARLINK-1846           
1 47136U 20088Q   23075.19521715 -.00005872  00000+0 -37615-3 0  9995
2 47136  53.0551 152.5486 0001461 109.8203 250.2944 15.06349392127927
STARLINK-1849           
1 47137U 20088R   23075.17769422 -.00018510  00000+0 -12275-2 0  9990
2 47137  53.0509 142.6273 0001500  69.7649 290.3501 15.06384008128060
STARLINK-1850           
1 47138U 20088S   23075.17548725  .00002109  00000+0  16067-3 0  9991
2 47138  53.0535 147.9569 0001993  90.0242 270.0976 15.06341054127994
STARLINK-1852           
1 47139U 20088T   23075.22614915  .00005963  00000+0  41932-3 0  9993
2 47139  53.0537 157.6142 0001690  85.4993 274.6189 15.06361003127854
STARLINK-1854           
1 47141U 20088V   23074.88653101  .00022177  00000+0  15026-2 0  9997
2 47141  53.0527 143.9351 0001665  79.8629 280.2548 15.06411369128013
STARLINK-1856           
1 47143U 20088X   23074.46995681  .00021732  00000+0  14702-2 0  9991
2 47143  53.0525 145.8017 0001681 105.3745 254.7430 15.06479293127650
STARLINK-1857           
1 47144U 20088Y   23075.18599340 -.00011484  00000+0 -75403-3 0  9995
2 47144  53.0545 132.5917 0001446  92.4643 267.6511 15.06365114128152
STARLINK-1860           
1 47147U 20088AB  23074.48010289  .00001548  00000+0  12282-3 0  9994
2 47147  53.0557 155.7549 0001553  92.7822 267.3344 15.06389170127526
STARLINK-1861           
1 47148U 20088AC  23075.18508655  .00037256  00000+0  25060-2 0  9994
2 47148  53.0528 142.5905 0003762  84.6745 275.4673 15.06409372128010
STARLINK-1862           
1 47149U 20088AD  23075.21363037  .00000152  00000+0  29135-4 0  9996
2 47149  53.0539 152.4670 0002117  88.1942 271.9289 15.06403556127889
STARLINK-1863           
1 47150U 20088AE  23075.20719042  .00026590  00000+0  17968-2 0  9991
2 47150  53.0536 142.4953 0001948 130.5740 229.5419 15.06408817128026
STARLINK-1864           
1 47151U 20088AF  23075.20624968 -.00033209  00000+0 -22250-2 0  9991
2 47151  53.0522 152.5000 0001908 111.7637 248.3555 15.06331933127875
STARLINK-1866           
1 47152U 20088AG  23075.19060499  .00001090  00000+0  92207-4 0  9995
2 47152  53.0552 152.5591 0001564  99.0620 261.0546 15.06328623127876
STARLINK-1867           
1 47153U 20088AH  23075.18926714 -.00022053  00000+0 -14679-2 0  9995
2 47153  53.0514 157.8159 0001511  84.7101 275.4060 15.06357028127804
STARLINK-1868           
1 47154U 20088AJ  23075.16296549 -.00056877  00000+0 -38371-2 0  9996
2 47154  53.0536 142.6909 0001140  92.0060 268.1059 15.06333047128014
STARLINK-1869           
1 47155U 20088AK  23074.93247875  .00009177  00000+0  63252-3 0  9995
2 47155  53.0536 163.7234 0001897  58.9177 301.1998 15.06496244127691
STARLINK-1871           
1 47157U 20088AM  23075.23578659 -.00001971  00000+0 -11354-3 0  9990
2 47157  53.0532 152.3684 0001366  89.4958 270.6187 15.06365501127881
STARLINK-1873           
1 47158U 20088AN  23074.92708683  .00015178  00000+0  10348-2 0  9991
2 47158  53.0523 143.7518 0001582  87.0319 273.0851 15.06431498127971
STARLINK-1876           
1 47161U 20088AR  23074.89390341  .00011410  00000+0  78396-3 0  9992
2 47161  53.0504 143.9004 0001642  68.9948 291.1216 15.06383569127723
